[{"OBJECT_NAME":"STARLINK-3635","OBJECT_ID":"2022-025AB","EPOCH":"2025-09-07T03:07:40.341792","MEAN_MOTION":15.08850262,"ECCENTRICITY":0.00012075,"INCLINATION":53.216,"RA_OF_ASC_NODE":143.153,"ARG_OF_PERICENTER":97.6238,"MEAN_ANOMALY":262.4891,"EPHEMERIS_TYPE":0,"CLASSIFICATION_TYPE":"U","NORAD_CAT_ID":51981,"ELEMENT_SET_NO":999,"REV_AT_EPOCH":19334,"BSTAR":0.00015658213,"MEAN_MOTION_DOT":2.206e-5,"MEAN_MOTION_DDOT":0},{"OBJECT_NAME":"STARLINK-3655","OBJECT_ID":"2022-025AD","EPOCH":"2025-09-07T03:02:22.637760","MEAN_MOTION":15.08846357,"ECCENTRICITY":0.00011954,"INCLINATION":53.2162,"RA_OF_ASC_NODE":143.1778,"ARG_OF_PERICENTER":99.3516,"MEAN_ANOMALY":260.7612,"EPHEMERIS_TYPE":0,"CLASSIFICATION_TYPE":"U","NORAD_CAT_ID":51983,"ELEMENT_SET_NO":999,"REV_AT_EPOCH":19334,"BSTAR":7.318618e-5,"MEAN_MOTION_DOT":8.77e-6,"MEAN_MOTION_DDOT":0},{"OBJECT_NAME":"STARLINK-3664","OBJECT_ID":"2022-025AE","EPOCH":"2025-09-07T02:21:22.453920","MEAN_MOTION":15.08850267,"ECCENTRICITY":0.00013667,"INCLINATION":53.2175,"RA_OF_ASC_NODE":143.3815,"ARG_OF_PERICENTER":91.4527,"MEAN_ANOMALY":268.6621,"EPHEMERIS_TYPE":0,"CLASSIFICATION_TYPE":"U","NORAD_CAT_ID":51984,"ELEMENT_SET_NO":999,"REV_AT_EPOCH":19334,"BSTAR":9.2022524e-5,"MEAN_MOTION_DOT":1.177e-5,"MEAN_MOTION_DDOT":0},{"OBJECT_NAME":"STARLINK-3651","OBJECT_ID":"2022-025AF","EPOCH":"2025-09-07T02:53:08.513952","MEAN_MOTION":15.08848483,"ECCENTRICITY":0.00013594,"INCLINATION":53.217,"RA_OF_ASC_NODE":143.2074,"ARG_OF_PERICENTER":90.2519,"MEAN_ANOMALY":269.8629,"EPHEMERIS_TYPE":0,"CLASSIFICATION_TYPE":"U","NORAD_CAT_ID":51985,"ELEMENT_SET_NO":999,"REV_AT_EPOCH":19334,"BSTAR":0.00011938953,"MEAN_MOTION_DOT":1.613e-5,"MEAN_MOTION_DDOT":0},{"OBJECT_NAME":"STARLINK-3645","OBJECT_ID":"2022-025AG","EPOCH":"2025-09-07T00:02:10.771584","MEAN_MOTION":15.08859201,"ECCENTRICITY":0.00010522,"INCLINATION":53.2168,"RA_OF_ASC_NODE":143.5772,"ARG_OF_PERICENTER":95.1079,"MEAN_ANOMALY":265.0033,"EPHEMERIS_TYPE":0,"CLASSIFICATION_TYPE":"U","NORAD_CAT_ID":51986,"ELEMENT_SET_NO":999,"REV_AT_EPOCH":19333,"BSTAR":0.0003540677,"MEAN_MOTION_DOT":5.355e-5,"MEAN_MOTION_DDOT":0},{"OBJECT_NAME":"STARLINK-3644","OBJECT_ID":"2022-025AH","EPOCH":"2025-09-07T02:19:59.230848","MEAN_MOTION":15.0886392,"ECCENTRICITY":0.00012033,"INCLINATION":53.2163,"RA_OF_ASC_NODE":143.2999,"ARG_OF_PERICENTER":99.4928,"MEAN_ANOMALY":260.62,"EPHEMERIS_TYPE":0,"CLASSIFICATION_TYPE":"U","NORAD_CAT_ID":51987,"ELEMENT_SET_NO":999,"REV_AT_EPOCH":19334,"BSTAR":0.00050949387,"MEAN_MOTION_DOT":7.835e-5,"MEAN_MOTION_DDOT":0},{"OBJECT_NAME":"STARLINK-3640","OBJECT_ID":"2022-025AJ","EPOCH":"2025-09-07T01:53:29.490720","MEAN_MOTION":15.08837506,"ECCENTRICITY":0.00014334,"INCLINATION":53.218,"RA_OF_ASC_NODE":143.3853,"ARG_OF_PERICENTER":94.1508,"MEAN_ANOMALY":265.9648,"EPHEMERIS_TYPE":0,"CLASSIFICATION_TYPE":"U","NORAD_CAT_ID":51988,"ELEMENT_SET_NO":999,"REV_AT_EPOCH":19334,"BSTAR":0.00012322671,"MEAN_MOTION_DOT":1.674e-5,"MEAN_MOTION_DDOT":0},{"OBJECT_NAME":"STARLINK-3642","OBJECT_ID":"2022-025AK","EPOCH":"2025-09-07T02:14:40.617888","MEAN_MOTION":15.0885443,"ECCENTRICITY":0.00013516,"INCLINATION":53.2166,"RA_OF_ASC_NODE":143.3161,"ARG_OF_PERICENTER":99.7201,"MEAN_ANOMALY":260.3944,"EPHEMERIS_TYPE":0,"CLASSIFICATION_TYPE":"U","NORAD_CAT_ID":51989,"ELEMENT_SET_NO":999,"REV_AT_EPOCH":19334,"BSTAR":0.00019016955,"MEAN_MOTION_DOT":2.741e-5,"MEAN_MOTION_DDOT":0},{"OBJECT_NAME":"STARLINK-3657","OBJECT_ID":"2022-025AL","EPOCH":"2025-09-07T01:29:38.014656","MEAN_MOTION":15.08837797,"ECCENTRICITY":0.00012371,"INCLINATION":53.2168,"RA_OF_ASC_NODE":123.457,"ARG_OF_PERICENTER":93.4129,"MEAN_ANOMALY":266.7004,"EPHEMERIS_TYPE":0,"CLASSIFICATION_TYPE":"U","NORAD_CAT_ID":51990,"ELEMENT_SET_NO":999,"REV_AT_EPOCH":19361,"BSTAR":-2.2482152e-5,"MEAN_MOTION_DOT":-6.46e-6,"MEAN_MOTION_DDOT":0},{"OBJECT_NAME":"STARLINK-3652","OBJECT_ID":"2022-025AM","EPOCH":"2025-09-07T02:04:05.531232","MEAN_MOTION":15.08844676,"ECCENTRICITY":0.00016826,"INCLINATION":53.2174,"RA_OF_ASC_NODE":143.3496,"ARG_OF_PERICENTER":100.2399,"MEAN_ANOMALY":259.8783,"EPHEMERIS_TYPE":0,"CLASSIFICATION_TYPE":"U","NORAD_CAT_ID":51991,"ELEMENT_SET_NO":999,"REV_AT_EPOCH":19334,"BSTAR":6.179935e-5,"MEAN_MOTION_DOT":6.96e-6,"MEAN_MOTION_DDOT":0},{"OBJECT_NAME":"STARLINK-3643","OBJECT_ID":"2022-025AN","EPOCH":"2025-09-06T22:02:58.206336","MEAN_MOTION":15.08842296,"ECCENTRICITY":0.00012013,"INCLINATION":53.2154,"RA_OF_ASC_NODE":124.0999,"ARG_OF_PERICENTER":86.5595,"MEAN_ANOMALY":273.5535,"EPHEMERIS_TYPE":0,"CLASSIFICATION_TYPE":"U","NORAD_CAT_ID":51992,"ELEMENT_SET_NO":999,"REV_AT_EPOCH":19316,"BSTAR":0.00017508501,"MEAN_MOTION_DOT":2.5e-5,"MEAN_MOTION_DDOT":0},{"OBJECT_NAME":"STARLINK-3648","OBJECT_ID":"2022-025AP","EPOCH":"2025-09-07T00:12:48.568608","MEAN_MOTION":15.08832917,"ECCENTRICITY":0.00017165,"INCLINATION":53.2181,"RA_OF_ASC_NODE":143.7016,"ARG_OF_PERICENTER":103.6916,"MEAN_ANOMALY":256.4267,"EPHEMERIS_TYPE":0,"CLASSIFICATION_TYPE":"U","NORAD_CAT_ID":51993,"ELEMENT_SET_NO":999,"REV_AT_EPOCH":19333,"BSTAR":2.721818e-5,"MEAN_MOTION_DOT":1.45e-6,"MEAN_MOTION_DDOT":0},{"OBJECT_NAME":"STARLINK-3647","OBJECT_ID":"2022-025AQ","EPOCH":"2025-09-06T21:57:40.069440","MEAN_MOTION":15.08852979,"ECCENTRICITY":0.00012706,"INCLINATION":53.2168,"RA_OF_ASC_NODE":124.1174,"ARG_OF_PERICENTER":88.8553,"MEAN_ANOMALY":271.2585,"EPHEMERIS_TYPE":0,"CLASSIFICATION_TYPE":"U","NORAD_CAT_ID":51994,"ELEMENT_SET_NO":999,"REV_AT_EPOCH":19317,"BSTAR":0.00019561159,"MEAN_MOTION_DOT":2.828e-5,"MEAN_MOTION_DDOT":0},{"OBJECT_NAME":"STARLINK-3636","OBJECT_ID":"2022-025AR","EPOCH":"2025-09-07T01:24:20.149920","MEAN_MOTION":15.08841415,"ECCENTRICITY":0.00015131,"INCLINATION":53.2166,"RA_OF_ASC_NODE":123.4739,"ARG_OF_PERICENTER":90.8251,"MEAN_ANOMALY":269.2915,"EPHEMERIS_TYPE":0,"CLASSIFICATION_TYPE":"U","NORAD_CAT_ID":51995,"ELEMENT_SET_NO":999,"REV_AT_EPOCH":19318,"BSTAR":3.2015404e-5,"MEAN_MOTION_DOT":2.22e-6,"MEAN_MOTION_DDOT":0},{"OBJECT_NAME":"STARLINK-3538","OBJECT_ID":"2022-025AS","EPOCH":"2025-09-06T21:52:22.185696","MEAN_MOTION":15.08848004,"ECCENTRICITY":0.00010988,"INCLINATION":53.2156,"RA_OF_ASC_NODE":124.1363,"ARG_OF_PERICENTER":72.077,"MEAN_ANOMALY":288.0342,"EPHEMERIS_TYPE":0,"CLASSIFICATION_TYPE":"U","NORAD_CAT_ID":51996,"ELEMENT_SET_NO":999,"REV_AT_EPOCH":19317,"BSTAR":-1.5172996e-5,"MEAN_MOTION_DOT":-5.29e-6,"MEAN_MOTION_DDOT":0},{"OBJECT_NAME":"STARLINK-3589","OBJECT_ID":"2022-025AT","EPOCH":"2025-09-07T01:19:06.983616","MEAN_MOTION":15.0877792,"ECCENTRICITY":0.00021141,"INCLINATION":53.2167,"RA_OF_ASC_NODE":123.4885,"ARG_OF_PERICENTER":91.6304,"MEAN_ANOMALY":268.493,"EPHEMERIS_TYPE":0,"CLASSIFICATION_TYPE":"U","NORAD_CAT_ID":51997,"ELEMENT_SET_NO":999,"REV_AT_EPOCH":19318,"BSTAR":-0.00048945221,"MEAN_MOTION_DOT":-8.056e-5,"MEAN_MOTION_DDOT":0}]
