STARLINK-3635           
1 51981U 22025AB  25250.13032803  .00002206  00000+0  15658-3 0  9996
2 51981  53.2160 143.1530 0001207  97.6238 262.4891 15.08850262193344
STARLINK-3655           
1 51983U 22025AD  25250.12665090  .00000877  00000+0  73186-4 0  9990
2 51983  53.2162 143.1778 0001195  99.3516 260.7612 15.08846357193348
STARLINK-3664           
1 51984U 22025AE  25250.09817655  .00001177  00000+0  92023-4 0  9998
2 51984  53.2175 143.3815 0001366  91.4527 268.6621 15.08850267193344
STARLINK-3651           
1 51985U 22025AF  25250.12023743  .00001613  00000+0  11939-3 0  9991
2 51985  53.2170 143.2074 0001359  90.2519 269.8629 15.08848483193344
STARLINK-3645           
1 51986U 22025AG  25250.00151356  .00005355  00000+0  35407-3 0  9994
2 51986  53.2168 143.5772 0001052  95.1079 265.0033 15.08859201193331
STARLINK-3644           
1 51987U 22025AH  25250.09721332  .00007835  00000+0  50949-3 0  9994
2 51987  53.2163 143.2999 0001203  99.4928 260.6200 15.08863920193344
STARLINK-3640           
1 51988U 22025AJ  25250.07881355  .00001674  00000+0  12323-3 0  9994
2 51988  53.2180 143.3853 0001433  94.1508 265.9648 15.08837506193340
STARLINK-3642           
1 51989U 22025AK  25250.09352567  .00002741  00000+0  19017-3 0  9998
2 51989  53.2166 143.3161 0001351  99.7201 260.3944 15.08854430193340
STARLINK-3657           
1 51990U 22025AL  25250.06224554 -.00000646  00000+0 -22482-4 0  9996
2 51990  53.2168 123.4570 0001237  93.4129 266.7004 15.08837797193614
STARLINK-3652           
1 51991U 22025AM  25250.08617513  .00000696  00000+0  61799-4 0  9997
2 51991  53.2174 143.3496 0001682 100.2399 259.8783 15.08844676193341
STARLINK-3643           
1 51992U 22025AN  25249.91872924  .00002500  00000+0  17509-3 0  9992
2 51992  53.2154 124.0999 0001201  86.5595 273.5535 15.08842296193169
STARLINK-3648           
1 51993U 22025AP  25250.00889547  .00000145  00000+0  27218-4 0  9996
2 51993  53.2181 143.7016 0001716 103.6916 256.4267 15.08832917193337
STARLINK-3647           
1 51994U 22025AQ  25249.91504710  .00002828  00000+0  19561-3 0  9992
2 51994  53.2168 124.1174 0001270  88.8553 271.2585 15.08852979193177
STARLINK-3636           
1 51995U 22025AR  25250.05856655  .00000222  00000+0  32015-4 0  9994
2 51995  53.2166 123.4739 0001513  90.8251 269.2915 15.08841415193181
STARLINK-3538           
1 51996U 22025AS  25249.91136789 -.00000529  00000+0 -15173-4 0  9995
2 51996  53.2156 124.1363 0001098  72.0770 288.0342 15.08848004193171
STARLINK-3589           
1 51997U 22025AT  25250.05494194 -.00008056  00000+0 -48945-3 0  9995
2 51997  53.2167 123.4885 0002114  91.6304 268.4930 15.08777920193189
